[{"OBJECT_NAME":"BRO-17","OBJECT_ID":"2025-276G","EPOCH":"2026-03-09T22:51:10.024704","MEAN_MOTION":15.17264745,"ECCENTRICITY":0.00064584,"INCLINATION":97.4258,"RA_OF_ASC_NODE":144.0221,"ARG_OF_PERICENTER":0.3846,"MEAN_ANOMALY":359.7392,"EPHEMERIS_TYPE":0,"CLASSIFICATION_TYPE":"U","NORAD_CAT_ID":66672,"ELEMENT_SET_NO":999,"REV_AT_EPOCH":1534,"BSTAR":0.00022162423,"MEAN_MOTION_DOT":4.348e-5,"MEAN_MOTION_DDOT":0},{"OBJECT_NAME":"COSMOS 252 DEB","OBJECT_ID":"1968-097D","EPOCH":"2026-03-09T22:40:32.342592","MEAN_MOTION":13.80993653,"ECCENTRICITY":0.06218464,"INCLINATION":62.2838,"RA_OF_ASC_NODE":22.8932,"ARG_OF_PERICENTER":123.8434,"MEAN_ANOMALY":242.3394,"EPHEMERIS_TYPE":0,"CLASSIFICATION_TYPE":"U","NORAD_CAT_ID":3551,"ELEMENT_SET_NO":999,"REV_AT_EPOCH":79484,"BSTAR":0.00067344756,"MEAN_MOTION_DOT":3.094e-5,"MEAN_MOTION_DDOT":0}]
